{"type": "FeatureCollection", "features": [ {"type": "Feature", "properties": {"norad_id": 54031, "name": "COSMOS 2559 (707K)", "group": "gnss", "lat": 12.613722918291804, "lon": 134.45018418358893, "alt_km": 19102.45532269627, "timestamp": "2025-12-27T09:28:56.719759+00:00", "meta": {"OBJECT_NAME": "COSMOS 2559 (707K)", "OBJECT_ID": "2022-130A", "EPOCH": "2025-12-26T05:45:52.034112", "MEAN_MOTION": 2.13101192, "ECCENTRICITY": 0.0011465, "INCLINATION": 64.3745, "RA_OF_ASC_NODE": 320.6663, "ARG_OF_PERICENTER": 191.5639, "MEAN_ANOMALY": 168.4144, "EPHEMERIS_TYPE": 0, "CLASSIFICATION_TYPE": "U", "NORAD_CAT_ID": 54031, "ELEMENT_SET_NO": 999, "REV_AT_EPOCH": 2500, "BSTAR": 0, "MEAN_MOTION_DOT": -3.6e-07, "MEAN_MOTION_DDOT": 0}, "tle": {"line1": "1 54031U 22130A   25360.24018558 -.00000036  00000+0  00000+0 0  9998", "line2": "2 54031  64.3745 320.6663 0011465 191.5639 168.4144  2.13101192 25006"}}, "geometry": {"type": "Point", "coordinates": [134.45018418358893, 12.613722918291804]}}, {"type": "Feature", "properties": {"norad_id": 54377, "name": "COSMOS 2564 (761)", "group": "gnss", "lat": -60.51968890581541, "lon": 141.7468534865665, "alt_km": 19133.338499151356, "timestamp": "2025-12-27T09:28:56.719770+00:00", "meta": {"OBJECT_NAME": "COSMOS 2564 (761)", "OBJECT_ID": "2022-161A", "EPOCH": "2025-12-27T00:32:50.727840", "MEAN_MOTION": 2.13101958, "ECCENTRICITY": 0.0008539, "INCLINATION": 64.7392, "RA_OF_ASC_NODE": 198.4243, "ARG_OF_PERICENTER": 203.4322, "MEAN_ANOMALY": 156.5843, "EPHEMERIS_TYPE": 0, "CLASSIFICATION_TYPE": "U", "NORAD_CAT_ID": 54377, "ELEMENT_SET_NO": 999, "REV_AT_EPOCH": 2396, "BSTAR": 0, "MEAN_MOTION_DOT": 1.19e-06, "MEAN_MOTION_DDOT": 0}, "tle": {"line1": "1 54377U 22161A   25361.02280935  .00000119  00000+0  00000+0 0  9993", "line2": "2 54377  64.7392 198.4243 0008539 203.4322 156.5843  2.13101958 23963"}}, "geometry": {"type": "Point", "coordinates": [141.7468534865665, -60.51968890581541]}}, {"type": "Feature", "properties": {"norad_id": 55268, "name": "GPS BIII-6  (PRN 28)", "group": "gnss", "lat": -28.30429087262786, "lon": 133.18647019902392, "alt_km": 20178.21298961324, "timestamp": "2025-12-27T09:28:56.719781+00:00", "meta": {"OBJECT_NAME": "GPS BIII-6  (PRN 28)", "OBJECT_ID": "2023-009A", "EPOCH": "2025-12-22T10:59:58.065216", "MEAN_MOTION": 2.00554901, "ECCENTRICITY": 0.00037047, "INCLINATION": 55.1065, "RA_OF_ASC_NODE": 155.4638, "ARG_OF_PERICENTER": 355.7912, "MEAN_ANOMALY": 4.4255, "EPHEMERIS_TYPE": 0, "CLASSIFICATION_TYPE": "U", "NORAD_CAT_ID": 55268, "ELEMENT_SET_NO": 999, "REV_AT_EPOCH": 2170, "BSTAR": 0, "MEAN_MOTION_DOT": 7.4e-07, "MEAN_MOTION_DDOT": 0}, "tle": {"line1": "1 55268U 23009A   25356.45831094  .00000074  00000+0  00000+0 0  9994", "line2": "2 55268  55.1065 155.4638 0003704 355.7912   4.4255  2.00554901 21704"}}, "geometry": {"type": "Point", "coordinates": [133.18647019902392, -28.30429087262786]}}, {"type": "Feature", "properties": {"norad_id": 56564, "name": "BEIDOU-3 G4 (C62)", "group": "gnss", "lat": 0.7912289298369877, "lon": 38.381276872396235, "alt_km": 35793.87105437334, "timestamp": "2025-12-27T09:28:56.719793+00:00", "meta": {"OBJECT_NAME": "BEIDOU-3 G4 (C62)", "OBJECT_ID": "2023-066A", "EPOCH": "2025-12-27T04:37:38.522208", "MEAN_MOTION": 1.00270523, "ECCENTRICITY": 0.0002494, "INCLINATION": 0.785, "RA_OF_ASC_NODE": 303.1928, "ARG_OF_PERICENTER": 231.2375, "MEAN_ANOMALY": 150.9549, "EPHEMERIS_TYPE": 0, "CLASSIFICATION_TYPE": "U", "NORAD_CAT_ID": 56564, "ELEMENT_SET_NO": 999, "REV_AT_EPOCH": 967, "BSTAR": 0, "MEAN_MOTION_DOT": -8.9e-07, "MEAN_MOTION_DDOT": 0}, "tle": {"line1": "1 56564U 23066A   25361.19280697 -.00000089  00000+0  00000+0 0  9998", "line2": "2 56564   0.7850 303.1928 0002494 231.2375 150.9549  1.00270523  9671"}}, "geometry": {"type": "Point", "coordinates": [38.381276872396235, 0.7912289298369877]}}, {"type": "Feature", "properties": {"norad_id": 56759, "name": "NVS-01 (IRNSS-1J)", "group": "gnss", "lat": 2.305796254365739, "lon": 8.033775506254617, "alt_km": 35792.29961055457, "timestamp": "2025-12-27T09:28:56.719807+00:00", "meta": {"OBJECT_NAME": "NVS-01 (IRNSS-1J)", "OBJECT_ID": "2023-076A", "EPOCH": "2025-12-27T01:00:38.527776", "MEAN_MOTION": 1.00269795, "ECCENTRICITY": 0.0008997, "INCLINATION": 2.5847, "RA_OF_ASC_NODE": 251.0919, "ARG_OF_PERICENTER": 17.8936, "MEAN_ANOMALY": 331.5101, "EPHEMERIS_TYPE": 0, "CLASSIFICATION_TYPE": "U", "NORAD_CAT_ID": 56759, "ELEMENT_SET_NO": 999, "REV_AT_EPOCH": 938, "BSTAR": 0, "MEAN_MOTION_DOT": -3.12e-06, "MEAN_MOTION_DDOT": 0}, "tle": {"line1": "1 56759U 23076A   25361.04211259 -.00000312  00000+0  00000+0 0  9996", "line2": "2 56759   2.5847 251.0919 0008997  17.8936 331.5101  1.00269795  9387"}}, "geometry": {"type": "Point", "coordinates": [8.033775506254617, 2.305796254365739]}}, {"type": "Feature", "properties": {"norad_id": 57517, "name": "COSMOS 2569 (703K)", "group": "gnss", "lat": -64.69899750024463, "lon": 0.8375226427298724, "alt_km": 19108.827718759254, "timestamp": "2025-12-27T09:28:56.719821+00:00", "meta": {"OBJECT_NAME": "COSMOS 2569 (703K)", "OBJECT_ID": "2023-114A", "EPOCH": "2025-12-27T00:52:02.160768", "MEAN_MOTION": 2.13103934, "ECCENTRICITY": 0.001104, "INCLINATION": 65.2014, "RA_OF_ASC_NODE": 78.4304, "ARG_OF_PERICENTER": 287.2469, "MEAN_ANOMALY": 72.6785, "EPHEMERIS_TYPE": 0, "CLASSIFICATION_TYPE": "U", "NORAD_CAT_ID": 57517, "ELEMENT_SET_NO": 999, "REV_AT_EPOCH": 1859, "BSTAR": 0, "MEAN_MOTION_DOT": -1.2e-07, "MEAN_MOTION_DDOT": 0}, "tle": {"line1": "1 57517U 23114A   25361.03613612 -.00000012  00000+0  00000+0 0  9997", "line2": "2 57517  65.2014  78.4304 0011040 287.2469  72.6785  2.13103934 18599"}}, "geometry": {"type": "Point", "coordinates": [0.8375226427298724, -64.69899750024463]}}, {"type": "Feature", "properties": {"norad_id": 58654, "name": "BEIDOU-3 M28 (C50)", "group": "gnss", "lat": -40.66390109745093, "lon": 32.10832560512566, "alt_km": 21525.954103963253, "timestamp": "2025-12-27T09:28:56.719832+00:00", "meta": {"OBJECT_NAME": "BEIDOU-3 M28 (C50)", "OBJECT_ID": "2023-207A", "EPOCH": "2025-12-26T09:34:30.666720", "MEAN_MOTION": 1.86229622, "ECCENTRICITY": 0.0002968, "INCLINATION": 55.596, "RA_OF_ASC_NODE": 68.1388, "ARG_OF_PERICENTER": 276.5456, "MEAN_ANOMALY": 83.472, "EPHEMERIS_TYPE": 0, "CLASSIFICATION_TYPE": "U", "NORAD_CAT_ID": 58654, "ELEMENT_SET_NO": 999, "REV_AT_EPOCH": 1362, "BSTAR": 0, "MEAN_MOTION_DOT": -3.3e-07, "MEAN_MOTION_DDOT": 0}, "tle": {"line1": "1 58654U 23207A   25360.39896605 -.00000033  00000+0  00000+0 0  9999", "line2": "2 58654  55.5960  68.1388 0002968 276.5456  83.4720  1.86229622 13628"}}, "geometry": {"type": "Point", "coordinates": [32.10832560512566, -40.66390109745093]}}, {"type": "Feature", "properties": {"norad_id": 58655, "name": "BEIDOU-3 M26 (C48)", "group": "gnss", "lat": 55.09154807328321, "lon": 146.83868710504885, "alt_km": 21533.59486609112, "timestamp": "2025-12-27T09:28:56.719843+00:00", "meta": {"OBJECT_NAME": "BEIDOU-3 M26 (C48)", "OBJECT_ID": "2023-207B", "EPOCH": "2025-12-26T17:36:09.851904", "MEAN_MOTION": 1.86231163, "ECCENTRICITY": 0.00042763, "INCLINATION": 55.5984, "RA_OF_ASC_NODE": 68.1137, "ARG_OF_PERICENTER": 261.988, "MEAN_ANOMALY": 98.0139, "EPHEMERIS_TYPE": 0, "CLASSIFICATION_TYPE": "U", "NORAD_CAT_ID": 58655, "ELEMENT_SET_NO": 999, "REV_AT_EPOCH": 1361, "BSTAR": 0, "MEAN_MOTION_DOT": -3.4e-07, "MEAN_MOTION_DDOT": 0}, "tle": {"line1": "1 58655U 23207B   25360.73344736 -.00000034  00000+0  00000+0 0  9992", "line2": "2 58655  55.5984  68.1137 0004276 261.9880  98.0139  1.86231163 13618"}}, "geometry": {"type": "Point", "coordinates": [146.83868710504885, 55.09154807328321]}}, {"type": "Feature", "properties": {"norad_id": 59598, "name": "GSAT0225 (GALILEO 29)", "group": "gnss", "lat": -54.94694376306972, "lon": 20.315870085085482, "alt_km": 23226.985638292637, "timestamp": "2025-12-27T09:28:56.719854+00:00", "meta": {"OBJECT_NAME": "GSAT0225 (GALILEO 29)", "OBJECT_ID": "2024-079A", "EPOCH": "2025-12-25T18:42:53.226144", "MEAN_MOTION": 1.70474814, "ECCENTRICITY": 0.00021774, "INCLINATION": 55.0084, "RA_OF_ASC_NODE": 105.9312, "ARG_OF_PERICENTER": 191.4017, "MEAN_ANOMALY": 169.7242, "EPHEMERIS_TYPE": 0, "CLASSIFICATION_TYPE": "U", "NORAD_CAT_ID": 59598, "ELEMENT_SET_NO": 999, "REV_AT_EPOCH": 1036, "BSTAR": 0, "MEAN_MOTION_DOT": 1.7e-07, "MEAN_MOTION_DDOT": 0}, "tle": {"line1": "1 59598U 24079A   25359.77978271  .00000017  00000+0  00000+0 0  9996", "line2": "2 59598  55.0084 105.9312 0002177 191.4017 169.7242  1.70474814 10368"}}, "geometry": {"type": "Point", "coordinates": [20.315870085085482, -54.94694376306972]}}, {"type": "Feature", "properties": {"norad_id": 59600, "name": "GSAT0227 (GALILEO 30)", "group": "gnss", "lat": 16.26014678780102, "lon": -85.89063708071578, "alt_km": 23214.01430964012, "timestamp": "2025-12-27T09:28:56.719865+00:00", "meta": {"OBJECT_NAME": "GSAT0227 (GALILEO 30)", "OBJECT_ID": "2024-079C", "EPOCH": "2025-12-21T20:31:35.455872", "MEAN_MOTION": 1.70474868, "ECCENTRICITY": 0.00028355, "INCLINATION": 55.0019, "RA_OF_ASC_NODE": 106.0394, "ARG_OF_PERICENTER": 117.3615, "MEAN_ANOMALY": 242.6419, "EPHEMERIS_TYPE": 0, "CLASSIFICATION_TYPE": "U", "NORAD_CAT_ID": 59600, "ELEMENT_SET_NO": 999, "REV_AT_EPOCH": 1034, "BSTAR": 0, "MEAN_MOTION_DOT": 4e-08, "MEAN_MOTION_DDOT": 0}, "tle": {"line1": "1 59600U 24079C   25355.85527148  .00000004  00000+0  00000+0 0  9994", "line2": "2 59600  55.0019 106.0394 0002835 117.3615 242.6419  1.70474868 10348"}}, "geometry": {"type": "Point", "coordinates": [-85.89063708071578, 16.26014678780102]}}]}